[Satellite]
VERSION=1.1
NAME=GLOBALSTAR M030
NICKNAME=GLOBALSTAR M030
TLE1=1 25854U 99037D   15055.15635360 -.00000100  00000-0 -53150-3 0  9997
TLE2=2 25854  51.9869 170.9217 0004050 111.9900 315.1003 11.55041423714956
